[{"OBJECT_NAME":"AETHER-2","OBJECT_ID":"2023-174AV","EPOCH":"2026-03-09T17:13:49.792224","MEAN_MOTION":15.33264165,"ECCENTRICITY":0.00086301,"INCLINATION":97.3931,"RA_OF_ASC_NODE":151.9008,"ARG_OF_PERICENTER":139.5247,"MEAN_ANOMALY":220.6639,"EPHEMERIS_TYPE":0,"CLASSIFICATION_TYPE":"U","NORAD_CAT_ID":58299,"ELEMENT_SET_NO":999,"REV_AT_EPOCH":12998,"BSTAR":0.00026165949,"MEAN_MOTION_DOT":8.341e-5,"MEAN_MOTION_DDOT":0},{"OBJECT_NAME":"STARLINK-32852","OBJECT_ID":"2025-018U","EPOCH":"2026-03-09T22:16:17.103072","MEAN_MOTION":15.30211457,"ECCENTRICITY":8.832e-5,"INCLINATION":53.1606,"RA_OF_ASC_NODE":308.5756,"ARG_OF_PERICENTER":128.8983,"MEAN_ANOMALY":231.2097,"EPHEMERIS_TYPE":0,"CLASSIFICATION_TYPE":"U","NORAD_CAT_ID":62824,"ELEMENT_SET_NO":999,"REV_AT_EPOCH":6321,"BSTAR":0.00095850687,"MEAN_MOTION_DOT":0.00028147,"MEAN_MOTION_DDOT":0}]
